[{"OBJECT_NAME":"CUBESX-HSE 3 (RS42S)","OBJECT_ID":"2023-091N","EPOCH":"2026-03-09T22:57:25.321248","MEAN_MOTION":15.286147,"ECCENTRICITY":0.00127191,"INCLINATION":97.5203,"RA_OF_ASC_NODE":133.4295,"ARG_OF_PERICENTER":86.5376,"MEAN_ANOMALY":273.7318,"EPHEMERIS_TYPE":0,"CLASSIFICATION_TYPE":"U","NORAD_CAT_ID":57178,"ELEMENT_SET_NO":999,"REV_AT_EPOCH":14925,"BSTAR":0.00059055694,"MEAN_MOTION_DOT":0.00016417,"MEAN_MOTION_DDOT":0},{"OBJECT_NAME":"STARLINK-33936","OBJECT_ID":"2025-101M","EPOCH":"2026-03-09T03:31:39.035712","MEAN_MOTION":15.27589114,"ECCENTRICITY":0.00014476,"INCLINATION":43.0037,"RA_OF_ASC_NODE":0.908,"ARG_OF_PERICENTER":286.5421,"MEAN_ANOMALY":73.5271,"EPHEMERIS_TYPE":0,"CLASSIFICATION_TYPE":"U","NORAD_CAT_ID":64005,"ELEMENT_SET_NO":999,"REV_AT_EPOCH":4697,"BSTAR":0.0014286357,"MEAN_MOTION_DOT":0.00039271,"MEAN_MOTION_DDOT":0}]
